start=new Date('2023-05-16T00:00:00.000Z').valueOf();
sats=[{"GP_ID":"231894964","SITE":"AFETR","TLE_LINE2":"2 53012  53.2172  34.7304 0001157  78.3706 281.7416 15.08844523 47469","TIME_SYSTEM":"UTC","EPHEMERIS_TYPE":"0","MEAN_MOTION_DOT":"0.00004621","RCS_SIZE":"LARGE","SEMIMAJOR_AXIS":"6917.867","OBJECT_ID":"2022-076AC","REV_AT_EPOCH":"4746","EPOCH":"2023-05-15T09:51:22.280256","OBJECT_NAME":"STARLINK-4271","MEAN_ANOMALY":"281.7416","BSTAR":"0.00030818000000","COUNTRY_CODE":"US","FILE":"3908681","CENTER_NAME":"EARTH","NORAD_CAT_ID":"53012","OBJECT_TYPE":"PAYLOAD","ARG_OF_PERICENTER":"78.3706","RA_OF_ASC_NODE":"34.7304","INCLINATION":"53.2172","ECCENTRICITY":"0.00011570","PERIOD":"95.437","CLASSIFICATION_TYPE":"U","PERIAPSIS":"538.931","MEAN_MOTION":"15.08844523","DECAY_DATE":null,"LAUNCH_DATE":"2022-07-07","MEAN_ELEMENT_THEORY":"SGP4","APOAPSIS":"540.532","ELEMENT_SET_NO":"999","TLE_LINE1":"1 53012U 22076AC  23135.41067454  .00004621  00000-0  30818-3 0  9999","MEAN_MOTION_DDOT":"0.0000000000000","REF_FRAME":"TEME"},{"SITE":"AFETR","GP_ID":"231896216","TIME_SYSTEM":"UTC","TLE_LINE2":"2 53013  53.2182  24.8272 0001034  92.1255 267.9856 15.08845779 47594","EPHEMERIS_TYPE":"0","SEMIMAJOR_AXIS":"6917.863","MEAN_MOTION_DOT":"-0.00000993","RCS_SIZE":"LARGE","OBJECT_ID":"2022-076AD","REV_AT_EPOCH":"4759","EPOCH":"2023-05-15T09:20:53.549952","OBJECT_NAME":"STARLINK-4177","MEAN_ANOMALY":"267.9856","COUNTRY_CODE":"US","BSTAR":"-0.00004434000000","FILE":"3908681","NORAD_CAT_ID":"53013","CENTER_NAME":"EARTH","OBJECT_TYPE":"PAYLOAD","RA_OF_ASC_NODE":"24.8272","INCLINATION":"53.2182","ECCENTRICITY":"0.00010340","ARG_OF_PERICENTER":"92.1255","CLASSIFICATION_TYPE":"U","PERIOD":"95.437","MEAN_MOTION":"15.08845779","PERIAPSIS":"539.012","LAUNCH_DATE":"2022-07-07","DECAY_DATE":null,"APOAPSIS":"540.443","MEAN_ELEMENT_THEORY":"SGP4","ELEMENT_SET_NO":"999","TLE_LINE1":"1 53013U 22076AD  23135.38950868 -.00000993  00000-0 -44340-4 0  9992","MEAN_MOTION_DDOT":"0.0000000000000","REF_FRAME":"TEME"},{"LAUNCH_DATE":"2022-07-07","DECAY_DATE":null,"APOAPSIS":"540.713","MEAN_ELEMENT_THEORY":"SGP4","ELEMENT_SET_NO":"999","MEAN_MOTION_DDOT":"0.0000000000000","TLE_LINE1":"1 53014U 22076AE  23135.40422983  .00000978  00000-0  79549-4 0  9998","REF_FRAME":"TEME","COUNTRY_CODE":"US","BSTAR":"0.00007954900000","FILE":"3908681","NORAD_CAT_ID":"53014","CENTER_NAME":"EARTH","OBJECT_TYPE":"PAYLOAD","ECCENTRICITY":"0.00014030","RA_OF_ASC_NODE":"24.7589","INCLINATION":"53.2168","ARG_OF_PERICENTER":"84.4839","CLASSIFICATION_TYPE":"U","PERIOD":"95.437","MEAN_MOTION":"15.08841052","PERIAPSIS":"538.772","SEMIMAJOR_AXIS":"6917.877","MEAN_MOTION_DOT":"0.00000978","RCS_SIZE":"LARGE","OBJECT_ID":"2022-076AE","REV_AT_EPOCH":"4759","EPOCH":"2023-05-15T09:42:05.457312","OBJECT_NAME":"STARLINK-4183","MEAN_ANOMALY":"275.6314","GP_ID":"231895962","SITE":"AFETR","TIME_SYSTEM":"UTC","TLE_LINE2":"2 53014  53.2168  24.7589 0001403  84.4839 275.6314 15.08841052 47596","EPHEMERIS_TYPE":"0"},{"EPOCH":"2023-05-15T17:07:14.015424","OBJECT_NAME":"STARLINK-4262","MEAN_ANOMALY":"268.8005","MEAN_MOTION_DOT":"0.00000622","RCS_SIZE":"LARGE","SEMIMAJOR_AXIS":"6917.892","OBJECT_ID":"2022-076AF","REV_AT_EPOCH":"4764","EPHEMERIS_TYPE":"0","GP_ID":"231927773","SITE":"AFETR","TLE_LINE2":"2 53015  53.2182  23.3718 0001580  91.3169 268.8005 15.08836075 47647","TIME_SYSTEM":"UTC","TLE_LINE1":"1 53015U 22076AF  23135.71335666  .00000622  00000-0  57169-4 0  9994","MEAN_MOTION_DDOT":"0.0000000000000","REF_FRAME":"TEME","LAUNCH_DATE":"2022-07-07","DECAY_DATE":null,"MEAN_ELEMENT_THEORY":"SGP4","APOAPSIS":"540.850","ELEMENT_SET_NO":"999","OBJECT_TYPE":"PAYLOAD","ARG_OF_PERICENTER":"91.3169","RA_OF_ASC_NODE":"23.3718","ECCENTRICITY":"0.00015800","INCLINATION":"53.2182","PERIOD":"95.438","CLASSIFICATION_TYPE":"U","PERIAPSIS":"538.664","MEAN_MOTION":"15.08836075","BSTAR":"0.00005716900000","COUNTRY_CODE":"US","FILE":"3908892","CENTER_NAME":"EARTH","NORAD_CAT_ID":"53015"},{"TLE_LINE1":"1 53016U 22076AG  23135.39318991 -.00000702  00000-0 -26026-4 0  9990","MEAN_MOTION_DDOT":"0.0000000000000","REF_FRAME":"TEME","LAUNCH_DATE":"2022-07-07","DECAY_DATE":null,"ELEMENT_SET_NO":"999","APOAPSIS":"540.512","MEAN_ELEMENT_THEORY":"SGP4","RA_OF_ASC_NODE":"24.8123","ECCENTRICITY":"0.00011530","INCLINATION":"53.2197","ARG_OF_PERICENTER":"103.7776","OBJECT_TYPE":"PAYLOAD","MEAN_MOTION":"15.08850238","PERIAPSIS":"538.916","CLASSIFICATION_TYPE":"U","PERIOD":"95.437","FILE":"3908681","COUNTRY_CODE":"US","BSTAR":"-0.00002602600000","NORAD_CAT_ID":"53016","CENTER_NAME":"EARTH","EPOCH":"2023-05-15T09:26:11.608224","MEAN_ANOMALY":"256.3344","OBJECT_NAME":"STARLINK-4283","OBJECT_ID":"2022-076AG","SEMIMAJOR_AXIS":"6917.849","MEAN_MOTION_DOT":"-0.00000702","RCS_SIZE":"LARGE","REV_AT_EPOCH":"4759","EPHEMERIS_TYPE":"0","TIME_SYSTEM":"UTC","TLE_LINE2":"2 53016  53.2197  24.8123 0001153 103.7776 256.3344 15.08850238 47597","SITE":"AFETR","GP_ID":"231895465"},{"MEAN_MOTION":"15.08840113","PERIAPSIS":"538.685","CLASSIFICATION_TYPE":"U","PERIOD":"95.438","RA_OF_ASC_NODE":"23.3867","ECCENTRICITY":"0.00015330","INCLINATION":"53.2173","ARG_OF_PERICENTER":"87.8684","OBJECT_TYPE":"PAYLOAD","NORAD_CAT_ID":"53017","CENTER_NAME":"EARTH","FILE":"3908892","COUNTRY_CODE":"US","BSTAR":"0.00013202000000","REF_FRAME":"TEME","MEAN_MOTION_DDOT":"0.0000000000000","TLE_LINE1":"1 53017U 22076AH  23135.70967690  .00001814  00000-0  13202-3 0  9996","ELEMENT_SET_NO":"999","APOAPSIS":"540.806","MEAN_ELEMENT_THEORY":"SGP4","DECAY_DATE":null,"LAUNCH_DATE":"2022-07-07","EPHEMERIS_TYPE":"0","TIME_SYSTEM":"UTC","TLE_LINE2":"2 53017  53.2173  23.3867 0001533  87.8684 272.2484 15.08840113 47653","GP_ID":"231926779","SITE":"AFETR","MEAN_ANOMALY":"272.2484","OBJECT_NAME":"STARLINK-4281","EPOCH":"2023-05-15T17:01:56.084160","REV_AT_EPOCH":"4765","OBJECT_ID":"2022-076AH","SEMIMAJOR_AXIS":"6917.880","MEAN_MOTION_DOT":"0.00001814","RCS_SIZE":"LARGE"},{"OBJECT_ID":"2022-076AJ","SEMIMAJOR_AXIS":"6922.865","MEAN_MOTION_DOT":"-0.00002472","RCS_SIZE":"LARGE","REV_AT_EPOCH":"4759","EPOCH":"2023-05-15T09:56:32.624736","MEAN_ANOMALY":"291.0746","OBJECT_NAME":"STARLINK-4279","TIME_SYSTEM":"UTC","TLE_LINE2":"2 53018  53.2190  24.9605 0001126  69.0366 291.0746 15.07210556 47591","SITE":"AFETR","GP_ID":"231896463","EPHEMERIS_TYPE":"0","LAUNCH_DATE":"2022-07-07","DECAY_DATE":null,"ELEMENT_SET_NO":"999","APOAPSIS":"545.510","MEAN_ELEMENT_THEORY":"SGP4","TLE_LINE1":"1 53018U 22076AJ  23135.41426649 -.00002472  00000-0 -14382-3 0  9992","MEAN_MOTION_DDOT":"0.0000000000000","REF_FRAME":"TEME","FILE":"3908681","COUNTRY_CODE":"US","BSTAR":"-0.00014382000000","NORAD_CAT_ID":"53018","CENTER_NAME":"EARTH","INCLINATION":"53.2190","RA_OF_ASC_NODE":"24.9605","ECCENTRICITY":"0.00011260","ARG_OF_PERICENTER":"69.0366","OBJECT_TYPE":"PAYLOAD","MEAN_MOTION":"15.07210556","PERIAPSIS":"543.951","CLASSIFICATION_TYPE":"U","PERIOD":"95.541"},{"TLE_LINE1":"1 53019U 22076AK  23135.10615223  .00001887  00000-0  13656-3 0  9997","MEAN_MOTION_DDOT":"0.0000000000000","REF_FRAME":"TEME","LAUNCH_DATE":"2022-07-07","DECAY_DATE":null,"APOAPSIS":"540.482","MEAN_ELEMENT_THEORY":"SGP4","ELEMENT_SET_NO":"999","OBJECT_TYPE":"PAYLOAD","ECCENTRICITY":"0.00011010","RA_OF_ASC_NODE":"26.0976","INCLINATION":"53.2166","ARG_OF_PERICENTER":"72.7940","CLASSIFICATION_TYPE":"U","PERIOD":"95.437","MEAN_MOTION":"15.08848053","PERIAPSIS":"538.959","COUNTRY_CODE":"US","BSTAR":"0.00013656000000","FILE":"3908681","NORAD_CAT_ID":"53019","CENTER_NAME":"EARTH","EPOCH":"2023-05-15T02:32:51.552672","OBJECT_NAME":"STARLINK-4282","MEAN_ANOMALY":"287.3172","SEMIMAJOR_AXIS":"6917.856","MEAN_MOTION_DOT":"0.00001887","RCS_SIZE":"LARGE","OBJECT_ID":"2022-076AK","REV_AT_EPOCH":"4755","EPHEMERIS_TYPE":"0","SITE":"AFETR","GP_ID":"231894715","TIME_SYSTEM":"UTC","TLE_LINE2":"2 53019  53.2166  26.0976 0001101  72.7940 287.3172 15.08848053 47558"},{"OBJECT_ID":"2022-076AL","SEMIMAJOR_AXIS":"6917.866","MEAN_MOTION_DOT":"0.00002771","RCS_SIZE":"LARGE","REV_AT_EPOCH":"4764","EPOCH":"2023-05-15T17:12:31.691808","MEAN_ANOMALY":"267.3711","OBJECT_NAME":"STARLINK-4287","TIME_SYSTEM":"UTC","TLE_LINE2":"2 53020  53.2173  23.3573 0001239  92.7423 267.3711 15.08844549 47644","SITE":"AFETR","GP_ID":"231926029","EPHEMERIS_TYPE":"0","DECAY_DATE":null,"LAUNCH_DATE":"2022-07-07","ELEMENT_SET_NO":"999","APOAPSIS":"540.589","MEAN_ELEMENT_THEORY":"SGP4","MEAN_MOTION_DDOT":"0.0000000000000","TLE_LINE1":"1 53020U 22076AL  23135.71703347  .00002771  00000-0  19211-3 0  9997","REF_FRAME":"TEME","FILE":"3908892","COUNTRY_CODE":"US","BSTAR":"0.00019211000000","NORAD_CAT_ID":"53020","CENTER_NAME":"EARTH","RA_OF_ASC_NODE":"23.3573","ECCENTRICITY":"0.00012390","INCLINATION":"53.2173","ARG_OF_PERICENTER":"92.7423","OBJECT_TYPE":"PAYLOAD","MEAN_MOTION":"15.08844549","PERIAPSIS":"538.874","CLASSIFICATION_TYPE":"U","PERIOD":"95.437"},{"EPHEMERIS_TYPE":"0","GP_ID":"231926279","SITE":"AFETR","TLE_LINE2":"2 53021  53.2176  23.4581 0001448  91.7371 268.3787 15.08844943 47643","TIME_SYSTEM":"UTC","OBJECT_NAME":"STARLINK-4203","MEAN_ANOMALY":"268.3787","EPOCH":"2023-05-15T16:40:44.093856","REV_AT_EPOCH":"4764","RCS_SIZE":"LARGE","MEAN_MOTION_DOT":"0.00001104","SEMIMAJOR_AXIS":"6917.865","OBJECT_ID":"2022-076AM","PERIOD":"95.437","CLASSIFICATION_TYPE":"U","PERIAPSIS":"538.729","MEAN_MOTION":"15.08844943","OBJECT_TYPE":"PAYLOAD","ARG_OF_PERICENTER":"91.7371","RA_OF_ASC_NODE":"23.4581","ECCENTRICITY":"0.00014480","INCLINATION":"53.2176","CENTER_NAME":"EARTH","NORAD_CAT_ID":"53021","BSTAR":"0.00008741100000","COUNTRY_CODE":"US","FILE":"3908892","REF_FRAME":"TEME","MEAN_MOTION_DDOT":"0.0000000000000","TLE_LINE1":"1 53021U 22076AM  23135.69495479  .00001104  00000-0  87411-4 0  9996","MEAN_ELEMENT_THEORY":"SGP4","APOAPSIS":"540.732","ELEMENT_SET_NO":"999","DECAY_DATE":null,"LAUNCH_DATE":"2022-07-07"}];
